{
  "type": "FeatureCollection",
  "features": [
    {
      "type": "Feature",
      "properties": {
        "norad_id": 66823,
        "name": "STARLINK-35957",
        "group": "last-30-days",
        "lat": -19.680412297176026,
        "lon": -174.22756251231834,
        "alt_km": 343.8097172149719,
        "timestamp": "2025-12-14T16:47:39.438392+00:00",
        "meta_object_name": "STARLINK-35957",
        "meta_object_id": "2025-280C",
        "meta_epoch": "2025-12-13T07:24:03.287232",
        "meta_mean_motion": 15.7841229,
        "meta_eccentricity": 0.00029253,
        "meta_inclination": 69.9931,
        "meta_ra_of_asc_node": 197.2154,
        "meta_arg_of_pericenter": 292.1559,
        "meta_mean_anomaly": 67.933,
        "meta_ephemeris_type": 0,
        "meta_classification_type": "U",
        "meta_norad_cat_id": 66823,
        "meta_element_set_no": 999,
        "meta_rev_at_epoch": 301,
        "meta_bstar": -0.0041443241,
        "meta_mean_motion_dot": -0.00665505,
        "meta_mean_motion_ddot": 0,
        "tle_line1": "1 66823U 25280C   25347.30837138 -.00665505  00000+0 -41443-2 0  9992",
        "tle_line2": "2 66823  69.9931 197.2154 0002925 292.1559  67.9330 15.78412290  3015"
      },
      "geometry": {
        "type": "Point",
        "coordinates": [
          -174.22756251231834,
          -19.680412297176026
        ]
      }
    },
    {
      "type": "Feature",
      "properties": {
        "norad_id": 66824,
        "name": "STARLINK-35896",
        "group": "last-30-days",
        "lat": -16.677735112611835,
        "lon": -173.00975822440793,
        "alt_km": 343.8704541538664,
        "timestamp": "2025-12-14T16:47:39.438402+00:00",
        "meta_object_name": "STARLINK-35896",
        "meta_object_id": "2025-280D",
        "meta_epoch": "2025-12-13T04:20:59.538624",
        "meta_mean_motion": 15.78881277,
        "meta_eccentricity": 0.00039504,
        "meta_inclination": 69.9932,
        "meta_ra_of_asc_node": 197.5749,
        "meta_arg_of_pericenter": 269.5598,
        "meta_mean_anomaly": 90.515,
        "meta_ephemeris_type": 0,
        "meta_classification_type": "U",
        "meta_norad_cat_id": 66824,
        "meta_element_set_no": 999,
        "meta_rev_at_epoch": 299,
        "meta_bstar": -0.0044799056,
        "meta_mean_motion_dot": -0.00729751,
        "meta_mean_motion_ddot": 0,
        "tle_line1": "1 66824U 25280D   25347.18124466 -.00729751  00000+0 -44799-2 0  9993",
        "tle_line2": "2 66824  69.9932 197.5749 0003950 269.5598  90.5150 15.78881277  2993"
      },
      "geometry": {
        "type": "Point",
        "coordinates": [
          -173.00975822440793,
          -16.677735112611835
        ]
      }
    },
    {
      "type": "Feature",
      "properties": {
        "norad_id": 66825,
        "name": "STARLINK-35476",
        "group": "last-30-days",
        "lat": -19.44708120729855,
        "lon": -174.1318396955017,
        "alt_km": 345.5239708406425,
        "timestamp": "2025-12-14T16:47:39.438414+00:00",
        "meta_object_name": "STARLINK-35476",
        "meta_object_id": "2025-280E",
        "meta_epoch": "2025-12-13T16:30:56.327616",
        "meta_mean_motion": 15.7706754,
        "meta_eccentricity": 0.00046688,
        "meta_inclination": 69.9934,
        "meta_ra_of_asc_node": 196.1307,
        "meta_arg_of_pericenter": 280.3772,
        "meta_mean_anomaly": 79.6901,
        "meta_ephemeris_type": 0,
        "meta_classification_type": "U",
        "meta_norad_cat_id": 66825,
        "meta_element_set_no": 999,
        "meta_rev_at_epoch": 307,
        "meta_bstar": -0.0039943465,
        "meta_mean_motion_dot": -0.00608447,
        "meta_mean_motion_ddot": 0,
        "tle_line1": "1 66825U 25280E   25347.68815194 -.00608447  00000+0 -39943-2 0  9997",
        "tle_line2": "2 66825  69.9934 196.1307 0004668 280.3772  79.6901 15.77067540  3073"
      },
      "geometry": {
        "type": "Point",
        "coordinates": [
          -174.1318396955017,
          -19.44708120729855
        ]
      }
    },
    {
      "type": "Feature",
      "properties": {
        "norad_id": 66826,
        "name": "STARLINK-35898",
        "group": "last-30-days",
        "lat": -16.43416299002333,
        "lon": -172.91428143618353,
        "alt_km": 346.47657665368206,
        "timestamp": "2025-12-14T16:47:39.438424+00:00",
        "meta_object_name": "STARLINK-35898",
        "meta_object_id": "2025-280F",
        "meta_epoch": "2025-12-13T18:01:47.295840",
        "meta_mean_motion": 15.77067962,
        "meta_eccentricity": 0.00050994,
        "meta_inclination": 69.9929,
        "meta_ra_of_asc_node": 195.949,
        "meta_arg_of_pericenter": 227.182,
        "meta_mean_anomaly": 132.8951,
        "meta_ephemeris_type": 0,
        "meta_classification_type": "U",
        "meta_norad_cat_id": 66826,
        "meta_element_set_no": 999,
        "meta_rev_at_epoch": 308,
        "meta_bstar": -0.0020306743,
        "meta_mean_motion_dot": -0.00319857,
        "meta_mean_motion_ddot": 0,
        "tle_line1": "1 66826U 25280F   25347.75124185 -.00319857  00000+0 -20307-2 0  9997",
        "tle_line2": "2 66826  69.9929 195.9490 0005099 227.1820 132.8951 15.77067962  3086"
      },
      "geometry": {
        "type": "Point",
        "coordinates": [
          -172.91428143618353,
          -16.43416299002333
        ]
      }
    },
    {
      "type": "Feature",
      "properties": {
        "norad_id": 66827,
        "name": "STARLINK-35959",
        "group": "last-30-days",
        "lat": -15.772803005901638,
        "lon": -172.65540799065198,
        "alt_km": 344.231264029655,
        "timestamp": "2025-12-14T16:47:39.438434+00:00",
        "meta_object_name": "STARLINK-35959",
        "meta_object_id": "2025-280G",
        "meta_epoch": "2025-12-13T16:29:57.289632",
        "meta_mean_motion": 15.77058622,
        "meta_eccentricity": 0.00061494,
        "meta_inclination": 69.9897,
        "meta_ra_of_asc_node": 196.1265,
        "meta_arg_of_pericenter": 289.4107,
        "meta_mean_anomaly": 70.6427,
        "meta_ephemeris_type": 0,
        "meta_classification_type": "U",
        "meta_norad_cat_id": 66827,
        "meta_element_set_no": 999,
        "meta_rev_at_epoch": 307,
        "meta_bstar": -0.0038259843,
        "meta_mean_motion_dot": -0.00584667,
        "meta_mean_motion_ddot": 0,
        "tle_line1": "1 66827U 25280G   25347.68746863 -.00584667  00000+0 -38260-2 0  9993",
        "tle_line2": "2 66827  69.9897 196.1265 0006149 289.4107  70.6427 15.77058622  3079"
      },
      "geometry": {
        "type": "Point",
        "coordinates": [
          -172.65540799065198,
          -15.772803005901638
        ]
      }
    },
    {
      "type": "Feature",
      "properties": {
        "norad_id": 66828,
        "name": "STARLINK-35982",
        "group": "last-30-days",
        "lat": -11.31503391935266,
        "lon": -170.9319870682699,
        "alt_km": 345.2208030989532,
        "timestamp": "2025-12-14T16:47:39.438446+00:00",
        "meta_object_name": "STARLINK-35982",
        "meta_object_id": "2025-280H",
        "meta_epoch": "2025-12-13T14:57:32.980896",
        "meta_mean_motion": 15.77283377,
        "meta_eccentricity": 0.00048196,
        "meta_inclination": 69.993,
        "meta_ra_of_asc_node": 196.305,
        "meta_arg_of_pericenter": 269.5547,
        "meta_mean_anomaly": 90.5101,
        "meta_ephemeris_type": 0,
        "meta_classification_type": "U",
        "meta_norad_cat_id": 66828,
        "meta_element_set_no": 999,
        "meta_rev_at_epoch": 306,
        "meta_bstar": -0.0038335704,
        "meta_mean_motion_dot": -0.00590837,
        "meta_mean_motion_ddot": 0,
        "tle_line1": "1 66828U 25280H   25347.62329839 -.00590837  00000+0 -38336-2 0  9998",
        "tle_line2": "2 66828  69.9930 196.3050 0004819 269.5547  90.5101 15.77283377  3067"
      },
      "geometry": {
        "type": "Point",
        "coordinates": [
          -170.9319870682699,
          -11.31503391935266
        ]
      }
    },
    {
      "type": "Feature",
      "properties": {
        "norad_id": 66829,
        "name": "STARLINK-36084",
        "group": "last-30-days",
        "lat": -14.670719626141732,
        "lon": -172.2207688329565,
        "alt_km": 345.8658376785197,
        "timestamp": "2025-12-14T16:47:39.438456+00:00",
        "meta_object_name": "STARLINK-36084",
        "meta_object_id": "2025-280J",
        "meta_epoch": "2025-12-13T18:00:48.254400",
        "meta_mean_motion": 15.76802697,
        "meta_eccentricity": 0.00054898,
        "meta_inclination": 69.9927,
        "meta_ra_of_asc_node": 195.9462,
        "meta_arg_of_pericenter": 277.77,
        "meta_mean_anomaly": 82.2876,
        "meta_ephemeris_type": 0,
        "meta_classification_type": "U",
        "meta_norad_cat_id": 66829,
        "meta_element_set_no": 999,
        "meta_rev_at_epoch": 308,
        "meta_bstar": -0.0041544453,
        "meta_mean_motion_dot": -0.00624565,
        "meta_mean_motion_ddot": 0,
        "tle_line1": "1 66829U 25280J   25347.75055850 -.00624565  00000+0 -41544-2 0  9993",
        "tle_line2": "2 66829  69.9927 195.9462 0005489 277.7700  82.2876 15.76802697  3082"
      },
      "geometry": {
        "type": "Point",
        "coordinates": [
          -172.2207688329565,
          -14.670719626141732
        ]
      }
    }
  ]
}